{"fetched_at":"2026-03-29T16:36:15Z","count":15609,"tles":[{"name":"STARLINK-31881","line1":"1 59659U 24084F   26087.82333751  .00000864  00000+0  40935-4 0  9999","line2":"2 59659  43.0044 289.9155 0001576 265.7539  94.3132 15.27577561107349","category":"Starlink"}]}